sat30600
1 30600U 99025AMF 20046.65103490  .00000931  00000-0  50532-3 0  9995
2 30600  98.3816 189.7011 0445300 324.6671  32.5702 13.73870366650282
